      2.10          N: GNSS NAV DATA                        RINEX VERSION / TYPE
fic2rin                                 01/20/2023 00:17:28 PGM / RUN BY / DATE
                                                            END OF HEADER
3  23  1 19  1 59 44.0 -.371296424419D-03  .238742359215D-11  .000000000000D+00
     .390000000000D+02 -.128125000000D+03  .390873424304D-08  .375419431280D+00
    -.671111047268D-05  .441959116142D-02  .926479697227D-05  .515374268532D+04
     .352784000000D+06 -.316649675369D-07 -.604992731164D+00  .596046447754D-07
     .977362352756D+00  .210406250000D+03  .102686818813D+01 -.770567811528D-08
     .371444043564D-10  .100000000000D+01  .224500000000D+04  .000000000000D+00
     .240000000000D+01  .000000000000D+00  .186264514923D-08  .390000000000D+02
     .345600000000D+06  .400000000000D+01
14 23  1 19 20  0  0.0 -.459877774119D-04  .784439180279D-11  .000000000000D+00
     .195000000000D+03  .747500000000D+02  .450268755501D-08 -.294303154926D+01
     .386685132980D-05  .255881180055D-02  .113360583782D-04  .515366798401D+04
     .417600000000D+06 -.484287738800D-07  .256931992855D+01 -.558793544769D-07
     .950083449532D+00  .156218750000D+03 -.307291589560D+01 -.776139472182D-08
    -.588238788221D-09  .100000000000D+01  .224500000000D+04  .000000000000D+00
     .240000000000D+01  .000000000000D+00 -.791624188423D-08  .707000000000D+03
     .410400000000D+06  .400000000000D+01
20 23  1 19 20  0  0.0  .456033740193D-03 -.238742359215D-11  .000000000000D+00
     .850000000000D+02 -.170937500000D+03  .457590489052D-08 -.663351582067D+00
    -.881589949131D-05  .456812779885D-02  .668130815029D-05  .515373860168D+04
     .417600000000D+06  .149011611938D-06 -.770534942045D+00 -.931322574615D-08
     .946734152718D+00  .243593750000D+03 -.294324480907D+01 -.818141221723D-08
    -.700029159024D-10  .100000000000D+01  .224500000000D+04  .000000000000D+00
     .485000000000D+01  .000000000000D+00 -.838190317154D-08  .850000000000D+02
     .410400000000D+06  .400000000000D+01
8  23  1 19 19 59 44.0 -.104370061308D-03 -.181898940355D-11  .000000000000D+00
     .130000000000D+02  .145718750000D+03  .445839999597D-08  .655251885963D+00
     .775605440140D-05  .819192349445D-02  .469386577606D-05  .515364981461D+04
     .417584000000D+06  .126659870148D-06 -.272590716875D+01  .152736902237D-06
     .960799413701D+00  .284375000000D+03  .194768189311D+00 -.818462663684D-08
     .585738684082D-10  .100000000000D+01  .224500000000D+04  .000000000000D+00
     .240000000000D+01  .000000000000D+00  .512227416039D-08  .130000000000D+02
     .411180000000D+06  .400000000000D+01
24 23  1 19 19 59 44.0 -.371518544853D-04 -.165982783074D-10  .000000000000D+00
     .700000000000D+01  .134375000000D+01  .569345144082D-08 -.131343853335D+01
     .212341547012D-06  .136870553251D-01  .479444861412D-05  .515364900017D+04
     .417584000000D+06  .299885869026D-06  .140285395742D+01  .800937414169D-07
     .933550491519D+00  .269625000000D+03  .880782707244D+00 -.842785105382D-08
    -.428589281035D-11  .100000000000D+01  .224500000000D+04  .000000000000D+00
     .240000000000D+01  .000000000000D+00  .232830643654D-08  .700000000000D+01
     .411930000000D+06  .400000000000D+01
11 23  1 19 20 59 44.0 -.826725736260D-04 -.909494701773D-11  .000000000000D+00
     .460000000000D+02 -.615000000000D+02  .469912430882D-08  .429145690223D+00
    -.318326056004D-05  .785356271081D-03 -.989064574242D-06  .515369460106D+04
     .421184000000D+06  .130385160446D-07 -.160165886144D+01  .689178705215D-07
     .964397026230D+00  .402500000000D+03 -.270730721282D+01 -.857357140938D-08
    -.166435504135D-09  .100000000000D+01  .224500000000D+04  .000000000000D+00
     .240000000000D+01  .000000000000D+00 -.884756445885D-08  .558000000000D+03
     .414000000000D+06  .400000000000D+01
21 23  1 19 19 59 44.0  .153553672135D-03  .227373675443D-12  .000000000000D+00
     .000000000000D+00 -.364062500000D+02  .492841957417D-08  .593521055700D+00
    -.250898301601D-05  .247934982181D-01 -.180676579475D-06  .515365721130D+04
     .417584000000D+06  .819563865662D-07 -.173774396161D+01 -.460073351860D-06
     .961120885560D+00  .382781250000D+03 -.834247803941D+00 -.893001482810D-08
    -.143220251413D-09  .100000000000D+01  .224500000000D+04  .000000000000D+00
     .240000000000D+01  .000000000000D+00 -.102445483208D-07  .000000000000D+00
     .415200000000D+06  .400000000000D+01
25 23  1 19 19 59 44.0  .412751454860D-03  .329691829393D-11  .000000000000D+00
     .000000000000D+00  .453125000000D+02  .443197032364D-08 -.305797051970D+01
     .228546559811D-05  .111277420074D-01  .113584101200D-04  .515356203651D+04
     .417584000000D+06  .521540641785D-07  .252516114799D+01 -.132247805595D-06
     .954303137253D+00  .153093750000D+03  .101593782747D+01 -.763138930657D-08
    -.570380901511D-09  .100000000000D+01  .224500000000D+04  .000000000000D+00
     .240000000000D+01  .000000000000D+00  .558793544769D-08  .000000000000D+00
     .415200000000D+06  .400000000000D+01
20 23  1 19 19 59 44.0  .456031877548D-03 -.238742359215D-11  .000000000000D+00
     .350000000000D+02 -.170937500000D+03  .457590489052D-08 -.665685702973D+00
    -.881589949131D-05  .456812744960D-02  .668130815029D-05  .515373861694D+04
     .417584000000D+06  .149011611938D-06 -.770534785512D+00 -.931322574615D-08
     .946734148329D+00  .243593750000D+03 -.294324447845D+01 -.818141221723D-08
    -.700029159024D-10  .100000000000D+01  .224500000000D+04  .000000000000D+00
     .240000000000D+01  .000000000000D+00 -.838190317154D-08  .350000000000D+02
     .415200000000D+06  .400000000000D+01
8  23  1 19 21 59 44.0 -.104383565485D-03 -.181898940355D-11  .000000000000D+00
     .260000000000D+02  .151468750000D+03  .439768318116D-08  .170506515712D+01
     .812113285065D-05  .819297053386D-02  .611692667007D-05  .515365602875D+04
     .424784000000D+06 -.391155481339D-07 -.272596582884D+01  .221654772758D-06
     .960799671174D+00  .261625000000D+03  .195148044768D+00 -.813319592311D-08
     .585738684082D-10  .100000000000D+01  .224500000000D+04  .000000000000D+00
     .240000000000D+01  .000000000000D+00  .512227416039D-08  .260000000000D+02
     .417600000000D+06  .400000000000D+01
25 23  1 19 21 59 44.0  .412775669247D-03  .329691829393D-11  .000000000000D+00
     .100000000000D+01  .520625000000D+02  .450483050142D-08 -.200780182674D+01
     .262074172497D-05  .111283147708D-01  .111684203148D-04  .515356020737D+04
     .424784000000D+06  .111758708954D-06  .252510593746D+01 -.763684511185D-07
     .954299242965D+00  .159531250000D+03  .101601809193D+01 -.764746140461D-08
    -.530736393015D-09  .100000000000D+01  .224500000000D+04  .000000000000D+00
     .240000000000D+01  .000000000000D+00  .558793544769D-08  .100000000000D+01
     .417600000000D+06  .400000000000D+01
21 23  1 19 21 59 44.0  .153555534780D-03  .227373675443D-12  .000000000000D+00
     .300000000000D+01 -.101562500000D+02  .458233372974D-08  .164351626559D+01
    -.756233930588D-06  .247952708742D-01 -.203587114811D-05  .515366707993D+04
     .424784000000D+06  .379979610443D-06 -.173780450155D+01  .137835741043D-06
     .961121966656D+00  .407750000000D+03 -.834053655694D+00 -.828141638280D-08
    -.335013954676D-09  .100000000000D+01  .224500000000D+04  .000000000000D+00
     .240000000000D+01  .000000000000D+00 -.102445483208D-07  .300000000000D+01
     .417600000000D+06  .400000000000D+01
24 23  1 19 21 59 44.0 -.372715294361D-04 -.165982783074D-10  .000000000000D+00
     .800000000000D+01  .187500000000D+01  .577738350836D-08 -.263257012066D+00
     .219792127609D-06  .136868241243D-01  .524707138538D-05  .515364824104D+04
     .424784000000D+06  .372529029846D-07  .140279224422D+01  .175088644028D-06
     .933549269983D+00  .266843750000D+03  .880806302649D+00 -.868107588737D-08
    -.235724104569D-10  .100000000000D+01  .224500000000D+04  .000000000000D+00
     .240000000000D+01  .000000000000D+00  .232830643654D-08  .800000000000D+01
     .417600000000D+06  .400000000000D+01
